0 FENGYUN 1C DEB
1 32156U 99025CTA 13283.70608777  .00000569  00000-0  25076-3 0  3235
2 32156 099.3651 094.4372 0088235 191.8478 168.0746 14.25599619325165
0 FENGYUN 1C DEB
1 32156U 99025CTA 13286.30294307  .00000620  00000-0  27179-3 0  3249
2 32156 099.3644 097.2126 0087396 184.3169 175.7273 14.25604492325533
0 FENGYUN 1C DEB
1 32156U 99025CTA 13288.68923602  .00000671  00000-0  29249-3 0  3256
2 32156 099.3624 099.7564 0087364 178.0649 182.1066 14.25609479325871
0 FENGYUN 1C DEB
1 32156U 99025CTA 13289.25071302  .00000689  00000-0  29922-3 0  3269
2 32156 099.3655 100.3610 0088986 175.9803 184.2348 14.25610812325953
0 FENGYUN 1C DEB
1 32156U 99025CTA 13291.28606948  .00000740  00000-0  32003-3 0  3278
2 32156 099.3636 102.5317 0088266 170.5369 189.7651 14.25615363326245
0 FENGYUN 1C DEB
1 32156U 99025CTA 13295.28658902  .00000781  00000-0  33658-3 0  3282
2 32156 099.3656 106.8035 0088161 159.0000 201.5026 14.25622866326817
